start=new Date('2021-12-27T00:00:00.000Z').valueOf();
sats=[{"NORAD_CAT_ID":"48879","GP_ID":"192526240","RA_OF_ASC_NODE":"128.0136","SEMIMAJOR_AXIS":"6896.052","OBJECT_TYPE":"PAYLOAD","MEAN_MOTION_DOT":"-0.00059732","TLE_LINE2":"2 48879  97.5258 128.0136 0004650  57.8460 217.9391 15.16009536  3595","MEAN_MOTION":"15.16009536","OBJECT_NAME":"STARLINK-3003","PERIAPSIS":"514.711","BSTAR":"-0.00313290000000","CENTER_NAME":"EARTH","REF_FRAME":"TEME","COUNTRY_CODE":"US","TIME_SYSTEM":"UTC","TLE_LINE1":"1 48879U 21059A   21360.91667824 -.00059732  00000-0 -31329-2 0  9996","MEAN_ELEMENT_THEORY":"SGP4","FILE":"3251846","CLASSIFICATION_TYPE":"U","EPOCH":"2021-12-26T22:00:00.999936","EPHEMERIS_TYPE":"0","ELEMENT_SET_NO":"999","REV_AT_EPOCH":"359","INCLINATION":"97.5258","RCS_SIZE":"LARGE","MEAN_MOTION_DDOT":"0.0000000000000","SITE":"AFETR","APOAPSIS":"521.124","MEAN_ANOMALY":"217.9391","LAUNCH_DATE":"2021-06-30","PERIOD":"94.986","DECAY_DATE":null,"ARG_OF_PERICENTER":"57.8460","OBJECT_ID":"2021-059A","ECCENTRICITY":"0.00046500"},{"ARG_OF_PERICENTER":"152.4895","DECAY_DATE":null,"ECCENTRICITY":"0.00035950","OBJECT_ID":"2021-059B","LAUNCH_DATE":"2021-06-30","PERIOD":"94.987","MEAN_MOTION_DDOT":"0.0000000000000","INCLINATION":"97.5256","RCS_SIZE":"LARGE","MEAN_ANOMALY":"142.8227","APOAPSIS":"520.458","SITE":"AFETR","MEAN_ELEMENT_THEORY":"SGP4","TLE_LINE1":"1 48880U 21059B   21360.91667824 -.00016537  00000-0 -86033-3 0  9997","FILE":"3251774","CLASSIFICATION_TYPE":"U","TIME_SYSTEM":"UTC","COUNTRY_CODE":"US","REV_AT_EPOCH":"2838","ELEMENT_SET_NO":"999","EPOCH":"2021-12-26T22:00:00.999936","EPHEMERIS_TYPE":"0","BSTAR":"-0.00086033000000","CENTER_NAME":"EARTH","REF_FRAME":"TEME","PERIAPSIS":"515.499","OBJECT_NAME":"STARLINK-3004","MEAN_MOTION":"15.15989361","SEMIMAJOR_AXIS":"6896.114","TLE_LINE2":"2 48880  97.5256 128.0217 0003595 152.4895 142.8227 15.15989361 28386","MEAN_MOTION_DOT":"-0.00016537","OBJECT_TYPE":"PAYLOAD","NORAD_CAT_ID":"48880","RA_OF_ASC_NODE":"128.0217","GP_ID":"192502324"},{"TLE_LINE2":"2 48881  97.5261 128.0313 0002840 127.4989 159.9527 15.15982932  3593","MEAN_MOTION_DOT":"-0.00016142","OBJECT_TYPE":"PAYLOAD","SEMIMAJOR_AXIS":"6896.133","RA_OF_ASC_NODE":"128.0313","GP_ID":"192527184","NORAD_CAT_ID":"48881","REF_FRAME":"TEME","BSTAR":"-0.00083987000000","CENTER_NAME":"EARTH","PERIAPSIS":"516.040","MEAN_MOTION":"15.15982932","OBJECT_NAME":"STARLINK-3005","MEAN_ANOMALY":"159.9527","APOAPSIS":"519.957","SITE":"AFETR","MEAN_MOTION_DDOT":"0.0000000000000","RCS_SIZE":"LARGE","INCLINATION":"97.5261","REV_AT_EPOCH":"359","ELEMENT_SET_NO":"999","EPHEMERIS_TYPE":"0","EPOCH":"2021-12-26T22:00:00.999936","CLASSIFICATION_TYPE":"U","TLE_LINE1":"1 48881U 21059C   21360.91667824 -.00016142  00000-0 -83987-3 0  9995","FILE":"3251846","MEAN_ELEMENT_THEORY":"SGP4","TIME_SYSTEM":"UTC","COUNTRY_CODE":"US","OBJECT_ID":"2021-059C","ECCENTRICITY":"0.00028400","ARG_OF_PERICENTER":"127.4989","DECAY_DATE":null,"PERIOD":"94.988","LAUNCH_DATE":"2021-06-30"},{"PERIOD":"91.738","LAUNCH_DATE":"2021-09-14","OBJECT_ID":"2021-082B","ECCENTRICITY":"0.00034680","DECAY_DATE":null,"ARG_OF_PERICENTER":"272.3793","EPOCH":"2021-12-26T22:00:00.999936","EPHEMERIS_TYPE":"0","ELEMENT_SET_NO":"999","REV_AT_EPOCH":"367","COUNTRY_CODE":"US","TIME_SYSTEM":"UTC","TLE_LINE1":"1 49131U 21082B   21360.91667824  .00040603  00000-0  34104-3 0  9994","CLASSIFICATION_TYPE":"U","FILE":"3251846","MEAN_ELEMENT_THEORY":"SGP4","SITE":"AFWTR","APOAPSIS":"362.114","MEAN_ANOMALY":"352.3672","INCLINATION":"69.9994","RCS_SIZE":"LARGE","MEAN_MOTION_DDOT":"0.0000000000000","MEAN_MOTION":"15.69693023","OBJECT_NAME":"STARLINK-3096","PERIAPSIS":"357.441","REF_FRAME":"TEME","BSTAR":"0.00034104000000","CENTER_NAME":"EARTH","GP_ID":"192526507","RA_OF_ASC_NODE":"195.1450","NORAD_CAT_ID":"49131","OBJECT_TYPE":"PAYLOAD","MEAN_MOTION_DOT":"0.00040603","TLE_LINE2":"2 49131  69.9994 195.1450 0003468 272.3793 352.3672 15.69693023  3673","SEMIMAJOR_AXIS":"6737.912"},{"APOAPSIS":"559.629","SITE":"AFWTR","MEAN_ANOMALY":"49.4543","MEAN_MOTION_DDOT":"0.0000000000000","RCS_SIZE":"LARGE","INCLINATION":"70.0001","ELEMENT_SET_NO":"999","EPOCH":"2021-12-26T22:00:00.999936","EPHEMERIS_TYPE":"0","REV_AT_EPOCH":"360","COUNTRY_CODE":"US","FILE":"3251846","TLE_LINE1":"1 49132U 21082C   21360.91667824 -.00663207  00000-0 -52482-1 0  9995","MEAN_ELEMENT_THEORY":"SGP4","CLASSIFICATION_TYPE":"U","TIME_SYSTEM":"UTC","OBJECT_ID":"2021-082C","ECCENTRICITY":"0.00031970","ARG_OF_PERICENTER":"272.0925","DECAY_DATE":null,"PERIOD":"95.803","LAUNCH_DATE":"2021-09-14","MEAN_MOTION_DOT":"-0.00663207","OBJECT_TYPE":"PAYLOAD","TLE_LINE2":"2 49132  70.0001 201.6896 0003197 272.0925  49.4543 15.03078583  3606","SEMIMAJOR_AXIS":"6935.547","GP_ID":"192526269","RA_OF_ASC_NODE":"201.6896","NORAD_CAT_ID":"49132","REF_FRAME":"TEME","BSTAR":"-0.05248200000000","CENTER_NAME":"EARTH","OBJECT_NAME":"STARLINK-3090","MEAN_MOTION":"15.03078583","PERIAPSIS":"555.195"},{"TLE_LINE2":"2 49133  70.0001 201.7083 0003205 274.9370  53.6442 15.03095061  3606","OBJECT_TYPE":"PAYLOAD","MEAN_MOTION_DOT":"-0.00663480","SEMIMAJOR_AXIS":"6935.496","RA_OF_ASC_NODE":"201.7083","GP_ID":"192527449","NORAD_CAT_ID":"49133","REF_FRAME":"TEME","CENTER_NAME":"EARTH","BSTAR":"-0.05248200000000","PERIAPSIS":"555.138","MEAN_MOTION":"15.03095061","OBJECT_NAME":"STARLINK-3077","MEAN_ANOMALY":"53.6442","SITE":"AFWTR","APOAPSIS":"559.584","INCLINATION":"70.0001","RCS_SIZE":"LARGE","MEAN_MOTION_DDOT":"0.0000000000000","REV_AT_EPOCH":"360","EPHEMERIS_TYPE":"0","EPOCH":"2021-12-26T22:00:00.999936","ELEMENT_SET_NO":"999","TIME_SYSTEM":"UTC","TLE_LINE1":"1 49133U 21082D   21360.91667824 -.00663480  00000-0 -52482-1 0  9999","FILE":"3251846","MEAN_ELEMENT_THEORY":"SGP4","CLASSIFICATION_TYPE":"U","COUNTRY_CODE":"US","ECCENTRICITY":"0.00032050","OBJECT_ID":"2021-082D","DECAY_DATE":null,"ARG_OF_PERICENTER":"274.9370","PERIOD":"95.802","LAUNCH_DATE":"2021-09-14"},{"PERIOD":"95.792","LAUNCH_DATE":"2021-09-14","ECCENTRICITY":"0.00032290","OBJECT_ID":"2021-082E","ARG_OF_PERICENTER":"267.8846","DECAY_DATE":null,"ELEMENT_SET_NO":"999","EPOCH":"2021-12-26T22:00:00.999936","EPHEMERIS_TYPE":"0","REV_AT_EPOCH":"360","COUNTRY_CODE":"US","TLE_LINE1":"1 49134U 21082E   21360.91667824 -.00664974  00000-0 -52389-1 0  9995","FILE":"3251846","CLASSIFICATION_TYPE":"U","MEAN_ELEMENT_THEORY":"SGP4","TIME_SYSTEM":"UTC","APOAPSIS":"559.119","SITE":"AFWTR","MEAN_ANOMALY":"95.7647","MEAN_MOTION_DDOT":"0.0000000000000","RCS_SIZE":"LARGE","INCLINATION":"70.0000","MEAN_MOTION":"15.03251537","OBJECT_NAME":"STARLINK-3078","PERIAPSIS":"554.641","REF_FRAME":"TEME","BSTAR":"-0.05238900000000","CENTER_NAME":"EARTH","GP_ID":"192527213","RA_OF_ASC_NODE":"201.6961","NORAD_CAT_ID":"49134","MEAN_MOTION_DOT":"-0.00664974","OBJECT_TYPE":"PAYLOAD","TLE_LINE2":"2 49134  70.0000 201.6961 0003229 267.8846  95.7647 15.03251537  3601","SEMIMAJOR_AXIS":"6935.015"},{"MEAN_MOTION":"15.69746485","OBJECT_NAME":"STARLINK-3073","PERIAPSIS":"357.436","CENTER_NAME":"EARTH","BSTAR":"-0.00023032000000","REF_FRAME":"TEME","NORAD_CAT_ID":"49135","GP_ID":"192526033","RA_OF_ASC_NODE":"195.1359","SEMIMAJOR_AXIS":"6737.759","MEAN_MOTION_DOT":"-0.00027613","OBJECT_TYPE":"PAYLOAD","TLE_LINE2":"2 49135  69.9995 195.1359 0003248 275.4866 355.6166 15.69746485  3672","LAUNCH_DATE":"2021-09-14","PERIOD":"91.735","ARG_OF_PERICENTER":"275.4866","DECAY_DATE":null,"ECCENTRICITY":"0.00032480","OBJECT_ID":"2021-082F","COUNTRY_CODE":"US","TLE_LINE1":"1 49135U 21082F   21360.91667824 -.00027613  00000-0 -23032-3 0  9994","MEAN_ELEMENT_THEORY":"SGP4","FILE":"3251846","CLASSIFICATION_TYPE":"U","TIME_SYSTEM":"UTC","ELEMENT_SET_NO":"999","EPHEMERIS_TYPE":"0","EPOCH":"2021-12-26T22:00:00.999936","REV_AT_EPOCH":"367","MEAN_MOTION_DDOT":"0.0000000000000","RCS_SIZE":"LARGE","INCLINATION":"69.9995","APOAPSIS":"361.813","SITE":"AFWTR","MEAN_ANOMALY":"355.6166"},{"REF_FRAME":"TEME","BSTAR":"-0.00029368000000","CENTER_NAME":"EARTH","OBJECT_NAME":"STARLINK-3084","MEAN_MOTION":"15.69751955","PERIAPSIS":"357.361","MEAN_MOTION_DOT":"-0.00035128","OBJECT_TYPE":"PAYLOAD","TLE_LINE2":"2 49136  69.9980 195.1452 0003336 271.2076 357.7561 15.69751955  3676","SEMIMAJOR_AXIS":"6737.744","GP_ID":"192526744","RA_OF_ASC_NODE":"195.1452","NORAD_CAT_ID":"49136","OBJECT_ID":"2021-082G","ECCENTRICITY":"0.00033360","ARG_OF_PERICENTER":"271.2076","DECAY_DATE":null,"PERIOD":"91.734","LAUNCH_DATE":"2021-09-14","APOAPSIS":"361.856","SITE":"AFWTR","MEAN_ANOMALY":"357.7561","MEAN_MOTION_DDOT":"0.0000000000000","RCS_SIZE":"LARGE","INCLINATION":"69.9980","ELEMENT_SET_NO":"999","EPHEMERIS_TYPE":"0","EPOCH":"2021-12-26T22:00:00.999936","REV_AT_EPOCH":"367","COUNTRY_CODE":"US","FILE":"3251846","TLE_LINE1":"1 49136U 21082G   21360.91667824 -.00035128  00000-0 -29368-3 0  9993","MEAN_ELEMENT_THEORY":"SGP4","CLASSIFICATION_TYPE":"U","TIME_SYSTEM":"UTC"},{"ARG_OF_PERICENTER":"271.0472","DECAY_DATE":null,"ECCENTRICITY":"0.00036990","OBJECT_ID":"2021-082H","LAUNCH_DATE":"2021-09-14","PERIOD":"91.737","MEAN_MOTION_DDOT":"0.0000000000000","RCS_SIZE":"LARGE","INCLINATION":"69.9994","MEAN_ANOMALY":"2.1736","APOAPSIS":"362.216","SITE":"AFWTR","CLASSIFICATION_TYPE":"U","TLE_LINE1":"1 49137U 21082H   21360.91667824  .00031690  00000-0  26663-3 0  9997","FILE":"3251846","MEAN_ELEMENT_THEORY":"SGP4","TIME_SYSTEM":"UTC","COUNTRY_CODE":"US","REV_AT_EPOCH":"367","ELEMENT_SET_NO":"999","EPHEMERIS_TYPE":"0","EPOCH":"2021-12-26T22:00:00.999936","BSTAR":"0.00026663000000","CENTER_NAME":"EARTH","REF_FRAME":"TEME","PERIAPSIS":"357.231","OBJECT_NAME":"STARLINK-3055","MEAN_MOTION":"15.69711805","SEMIMAJOR_AXIS":"6737.859","TLE_LINE2":"2 49137  69.9994 195.1342 0003699 271.0472   2.1736 15.69711805  3675","MEAN_MOTION_DOT":"0.00031690","OBJECT_TYPE":"PAYLOAD","NORAD_CAT_ID":"49137","RA_OF_ASC_NODE":"195.1342","GP_ID":"192526980"}];
